ONEWEB-0589             
1 54655U 22166P   24207.93701834  .00000001  00000+0 -30281-4 0  9991
2 54655  87.9288  21.5930 0002785  97.1752 262.9698 13.21824495 80225
ONEWEB-0590             
1 54656U 22166Q   24207.88497637  .00000047  00000+0  81933-4 0  9998
2 54656  87.9289  21.6120 0001751  94.3066 265.8268 13.21825673 80200
ONEWEB-0591             
1 54657U 22166R   24207.89757942  .00000072  00000+0  14374-3 0  9990
2 54657  87.9282  21.6038 0001963  84.5770 275.5588 13.21825432 80239
ONEWEB-0592             
1 54658U 22166S   24207.90073824  .00000093  00000+0  19430-3 0  9994
2 54658  87.9282  21.5674 0002069  96.5078 263.6292 13.21826550 80116
ONEWEB-0593             
1 54659U 22166T   24207.92438950  .00000020  00000+0  16537-4 0  9998
2 54659  87.9286  21.5894 0002060  92.6545 267.4825 13.21826935 80225
ONEWEB-0594             
1 54660U 22166U   24208.01901398 -.00000026  00000+0 -95641-4 0  9993
2 54660  87.9288  21.5718 0001819  84.5049 275.6292 13.21826269 80717
ONEWEB-0595             
1 54661U 22166V   24207.92124262  .00000707  00000+0  16809-2 0  9991
2 54661  87.9284  21.5779 0001603  87.9998 272.1319 13.21821638 80214
ONEWEB-0596             
1 54662U 22166W   24207.89443263  .00000096  00000+0  20145-3 0  9993
2 54662  87.9291  21.5894 0002074  99.2541 260.8827 13.21826806 80214
